NORAD_CAT_ID,OBJECT_NAME,OBJECT_TYPE,EPOCH,MEAN_MOTION,ECCENTRICITY,INCLINATION,RA_OF_ASC_NODE,ARG_OF_PERICENTER,MEAN_ANOMALY,BSTAR,MEAN_MOTION_DOT,MEAN_MOTION_DDOT,TLE_LINE0,TLE_LINE1,TLE_LINE2,SEMIMAJOR_AXIS,PERIOD,APOGEE,PERIGEE,DECAYED
52648.0,STARLINK-3854,PAYLOAD,2023-11-23 10:41:48,15.0883296,0.0001475,53.2187,57.6556,97.4062,262.7098,6.5681e-06,-1.83e-06,0.0,0 STARLINK-3854,1 52648U 22052BC  23327.44570269 -.00000183  00000-0  65681-5 0  9994,2 52648  53.2187  57.6556 0001475  97.4062 262.7098 15.08832960 85113,6917.902,95.438,540.787,538.747,0.0
52648.0,STARLINK-3854,PAYLOAD,2023-11-23 13:52:34,15.0883754,0.0001499,53.2188,57.0603,95.474,264.6423,1.4997e-05,-4.9e-07,0.0,0 STARLINK-3854,1 52648U 22052BC  23327.57818019 -.00000049  00000-0  14997-4 0  9990,2 52648  53.2188  57.0603 0001499  95.4740 264.6423 15.08837540 84759,6917.888,95.438,540.79,538.716,0.0
52648.0,STARLINK-3854,PAYLOAD,2023-11-24 12:07:59,15.08832582,0.0001799,53.2185,52.8998,75.1053,285.0138,-5.781e-05,-1.208e-05,0.0,0 STARLINK-3854,1 52648U 22052BC  23328.50554812 -.00001208  00000-0 -57810-4 0  9992,2 52648  53.2185  52.8998 0001799  75.1053 285.0138 15.08832582 85270,6917.903,95.438,541.013,538.524,0.0
52648.0,STARLINK-3854,PAYLOAD,2023-11-24 15:18:45,15.08838739,0.0001885,53.2196,52.2974,72.9706,287.1493,1.581e-05,-3.7e-07,0.0,0 STARLINK-3854,1 52648U 22052BC  23328.63802415 -.00000037  00000-0  15810-4 0  9993,2 52648  53.2196  52.2974 0001885  72.9706 287.1493 15.08838739 84913,6917.884,95.438,541.053,538.445,0.0
52648.0,STARLINK-3854,PAYLOAD,2023-11-25 11:58:45,15.08849952,0.0001766,53.2188,48.4334,97.8157,262.3035,0.00036989,5.605e-05,0.0,0 STARLINK-3854,1 52648U 22052BC  23329.49914324  .00005605  00000-0  36989-3 0  9995,2 52648  53.2188  48.4334 0001766  97.8157 262.3035 15.08849952 85046,6917.85,95.437,540.937,538.493,0.0
52648.0,STARLINK-3854,PAYLOAD,2023-11-25 15:09:31,15.08865683,0.0001416,53.2177,47.8415,101.1232,258.9919,0.00058146,8.985e-05,0.0,0 STARLINK-3854,1 52648U 22052BC  23329.63161401  .00008985  00000-0  58146-3 0  9994,2 52648  53.2177  47.8415 0001416 101.1232 258.9919 15.08865683 85065,6917.802,95.436,540.646,538.687,0.0
52648.0,STARLINK-3854,PAYLOAD,2023-11-26 11:49:32,15.08857753,0.000159,53.2194,43.9735,86.5586,273.5588,0.00021514,3.139e-05,0.0,0 STARLINK-3854,1 52648U 22052BC  23330.49273252  .00003139  00000-0  21514-3 0  9993,2 52648  53.2194  43.9735 0001590  86.5586 273.5588 15.08857753 85577,6917.826,95.436,540.791,538.591,0.0
52648.0,STARLINK-3854,PAYLOAD,2023-11-26 15:00:18,15.08854225,0.0001662,53.2184,43.3822,76.1723,283.9454,0.00011517,1.546e-05,0.0,0 STARLINK-3854,1 52648U 22052BC  23330.62521302  .00001546  00000-0  11517-3 0  9992,2 52648  53.2184  43.3822 0001662  76.1723 283.9454 15.08854225 85214,6917.837,95.437,540.852,538.552,0.0
52648.0,STARLINK-3854,PAYLOAD,2023-11-27 11:40:21,15.0881991,0.0001911,53.2181,39.5121,117.1811,242.9376,-0.00040742,-6.763e-05,0.0,0 STARLINK-3854,1 52648U 22052BC  23331.48635618 -.00006763  00000-0 -40742-3 0  9993,2 52648  53.2181  39.5121 0001911 117.1811 242.9376 15.08819910 85727,6917.942,95.439,541.129,538.485,0.0
52648.0,STARLINK-3854,PAYLOAD,2023-11-28 09:55:44,15.08853674,0.0001923,53.219,35.3525,96.3539,263.7672,0.0004136,6.303e-05,0.0,0 STARLINK-3854,1 52648U 22052BC  23332.41370537  .00006303  00000-0  41360-3 0  9998,2 52648  53.2190  35.3525 0001923  96.3539 263.7672 15.08853674 85867,6917.839,95.437,541.034,538.373,0.0
52648.0,STARLINK-3854,PAYLOAD,2023-11-28 13:06:30,15.0885853,0.0001866,53.2191,34.759,97.7951,262.3253,0.00045212,6.918e-05,0.0,0 STARLINK-3854,1 52648U 22052BC  23332.54618253  .00006918  00000-0  45212-3 0  9994,2 52648  53.2191  34.7590 0001866  97.7951 262.3253 15.08858530 85509,6917.824,95.436,540.98,538.398,0.0
52648.0,STARLINK-3854,PAYLOAD,2023-11-29 11:21:55,15.08845756,0.0001779,53.2188,30.5952,94.5063,265.6132,0.00036832,5.58e-05,0.0,0 STARLINK-3854,1 52648U 22052BC  23333.47355342  .00005580  00000-0  36832-3 0  9996,2 52648  53.2188  30.5952 0001779  94.5063 265.6132 15.08845756 86029,6917.863,95.437,540.958,538.497,0.0
52648.0,STARLINK-3854,PAYLOAD,2023-11-30 03:15:47,15.08820726,0.0001899,53.2199,27.6206,119.4413,240.6769,-0.00047527,-7.84e-05,0.0,0 STARLINK-3854,1 52648U 22052BC  23334.13596688 -.00007840  00000-0 -47527-3 0  9996,2 52648  53.2199  27.6206 0001899 119.4413 240.6769 15.08820726 86129,6917.939,95.439,541.118,538.491,0.0
52648.0,STARLINK-3854,PAYLOAD,2023-11-30 11:12:43,15.08836367,0.0001957,53.2191,26.1328,88.9808,271.1409,-0.0001028,-1.924e-05,0.0,0 STARLINK-3854,1 52648U 22052BC  23334.46716747 -.00001924  00000-0 -10280-3 0  9995,2 52648  53.2191  26.1328 0001957  88.9808 271.1409 15.08836367 86176,6917.891,95.438,541.11,538.403,0.0
52648.0,STARLINK-3854,PAYLOAD,2023-12-01 11:03:28,15.08872311,0.0001949,53.2185,21.6737,82.6787,277.4427,0.00059629,9.223e-05,0.0,0 STARLINK-3854,1 52648U 22052BC  23335.46074958  .00009223  00000-0  59629-3 0  9995,2 52648  53.2185  21.6737 0001949  82.6787 277.4427 15.08872311 86326,6917.782,95.436,540.995,538.298,0.0
52648.0,STARLINK-3854,PAYLOAD,2023-12-01 12:38:51,15.08874664,0.0001898,53.2186,21.3736,83.518,276.6029,0.00061725,9.558e-05,0.0,0 STARLINK-3854,1 52648U 22052BC  23335.52698712  .00009558  00000-0  61725-3 0  9993,2 52648  53.2186  21.3736 0001898  83.5180 276.6029 15.08874664 85953,6917.774,95.435,540.952,538.326,0.0
52648.0,STARLINK-3854,PAYLOAD,2023-12-02 09:18:51,15.08879555,0.0002416,53.2191,17.507,87.2739,272.853,0.00062096,9.619e-05,0.0,0 STARLINK-3854,1 52648U 22052BC  23336.38810098  .00009619  00000-0  62096-3 0  9991,2 52648  53.2191  17.5070 0002416  87.2739 272.8530 15.08879555 86461,6917.759,95.435,541.296,537.953,0.0
52648.0,STARLINK-3854,PAYLOAD,2023-12-02 12:29:37,15.08886752,0.0002199,53.2194,16.9116,86.9192,273.2052,0.00059001,9.126e-05,0.0,0 STARLINK-3854,1 52648U 22052BC  23336.52057449  .00009126  00000-0  59001-3 0  9995,2 52648  53.2194  16.9116 0002199  86.9192 273.2052 15.08886752 86107,6917.737,95.435,541.124,538.081,0.0
52648.0,STARLINK-3854,PAYLOAD,2023-12-03 02:48:07,15.08823311,0.0001458,53.219,14.2357,106.1386,253.9767,-0.00086055,-0.00013951,0.0,0 STARLINK-3854,1 52648U 22052BC  23337.11674946 -.00013951  00000-0 -86055-3 0  9990,2 52648  53.2190  14.2357 0001458 106.1386 253.9767 15.08823311 86579,6917.931,95.439,540.805,538.788,0.0
52648.0,STARLINK-3854,PAYLOAD,2023-12-03 09:09:40,15.08819108,0.0001968,53.2189,13.0439,111.9906,248.1295,-0.0007219,-0.00011752,0.0,0 STARLINK-3854,1 52648U 22052BC  23337.38171454 -.00011752  00000-0 -72190-3 0  9997,2 52648  53.2189  13.0439 0001968 111.9906 248.1295 15.08819108 86237,6917.944,95.439,541.171,538.448,0.0
52648.0,STARLINK-3854,PAYLOAD,2023-12-04 02:38:55,15.08825495,0.0002032,53.2192,9.7771,94.3542,265.7682,-0.00039767,-6.609e-05,0.0,0 STARLINK-3854,1 52648U 22052BC  23338.11036674 -.00006609  00000-0 -39767-3 0  9991,2 52648  53.2192   9.7771 0002032  94.3542 265.7682 15.08825495 86720,6917.925,95.438,541.195,538.384,0.0
52648.0,STARLINK-3854,PAYLOAD,2023-12-04 09:00:28,15.08835781,0.0002132,53.2184,8.5871,117.7722,242.3487,-0.00011616,-2.136e-05,0.0,0 STARLINK-3854,1 52648U 22052BC  23338.37532525 -.00002136  00000-0 -11616-3 0  9999,2 52648  53.2184   8.5871 0002132 117.7722 242.3487 15.08835781 86767,6917.893,95.438,541.233,538.283,0.0
52648.0,STARLINK-3854,PAYLOAD,2023-12-05 08:51:15,15.08875771,0.0002149,53.2183,4.1304,107.1141,253.0087,0.0012977,0.00020446,0.0,0 STARLINK-3854,1 52648U 22052BC  23339.36892810  .00020446  00000-0  12977-2 0  9997,2 52648  53.2183   4.1304 0002149 107.1141 253.0087 15.08875771 86910,6917.771,95.435,541.123,538.149,0.0
52648.0,STARLINK-3854,PAYLOAD,2023-12-06 07:06:38,15.08867473,0.0002263,53.2186,359.9667,108.8327,251.2911,0.0005177,7.967e-05,0.0,0 STARLINK-3854,1 52648U 22052BC  23340.29627869  .00007967  00000-0  51770-3 0  9999,2 52648  53.2186 359.9667 0002263 108.8327 251.2911 15.08867473 87059,6917.796,95.436,541.227,538.096,0.0
52648.0,STARLINK-3854,PAYLOAD,2023-12-07 10:08:12,15.08833013,0.0002001,53.2179,354.9108,94.8562,265.2659,0.00035131,5.306e-05,0.0,0 STARLINK-3854,1 52648U 22052BC  23341.42236534  .00005306  00000-0  35131-3 0  9998,2 52648  53.2179 354.9108 0002001  94.8562 265.2659 15.08833013 87227,6917.902,95.438,541.151,538.382,0.0
52648.0,STARLINK-3854,PAYLOAD,2023-12-08 08:23:36,15.08846581,0.0001931,53.2174,350.7497,94.1169,266.0044,0.00042149,6.427e-05,0.0,0 STARLINK-3854,1 52648U 22052BC  23342.34972414  .00006427  00000-0  42149-3 0  9996,2 52648  53.2174 350.7497 0001931  94.1169 266.0044 15.08846581 86987,6917.86,95.437,541.061,538.389,0.0
52648.0,STARLINK-3854,PAYLOAD,2023-12-09 08:14:23,15.08845957,0.0001938,53.2167,346.2884,91.1264,268.995,0.00019409,2.803e-05,0.0,0 STARLINK-3854,1 52648U 22052BC  23343.34332328  .00002803  00000-0  19409-3 0  9998,2 52648  53.2167 346.2884 0001938  91.1264 268.9950 15.08845957 87512,6917.862,95.437,541.068,538.386,0.0
52648.0,STARLINK-3854,PAYLOAD,2023-12-10 00:08:14,15.08845736,0.0002192,53.2178,343.3167,80.1142,280.0098,0.00014517,2.023e-05,0.0,0 STARLINK-3854,1 52648U 22052BC  23344.00572368  .00002023  00000-0  14517-3 0  9991,2 52648  53.2178 343.3167 0002192  80.1142 280.0098 15.08845736 87616,6917.863,95.437,541.244,538.211,0.0
52648.0,STARLINK-3854,PAYLOAD,2023-12-11 04:45:10,15.08844399,0.0001952,53.217,337.9612,96.9993,263.1222,0.00010207,1.337e-05,0.0,0 STARLINK-3854,1 52648U 22052BC  23345.19804132  .00001337  00000-0  10207-3 0  9998,2 52648  53.2170 337.9612 0001952  96.9993 263.1222 15.08844399 87798,6917.867,95.437,541.082,538.382,0.0
52648.0,STARLINK-3854,PAYLOAD,2023-12-11 06:20:33,15.08844369,0.0001946,53.2171,337.664,96.6943,263.427,9.908e-05,1.289e-05,0.0,0 STARLINK-3854,1 52648U 22052BC  23345.26428142  .00001289  00000-0  99080-4 0  9992,2 52648  53.2171 337.6640 0001946  96.6943 263.4270 15.08844369 87425,6917.867,95.437,541.078,538.386,0.0
